{
  "businesses": [
    {
      "id": "5adc22f22f8b9f2ab30af7b1",
      "safeNumber": "BV542998",
      "name": "TERSANKI",
      "address": {
        "street": "381 Varanda Place",
        "city": "Bowmansville",
        "province": "Kentucky",
        "postalCode": 50132
      }
    },
    {
      "id": "5adc22f2c58c1f32ae11352a",
      "safeNumber": "MY144271",
      "name": "AUTOGRATE",
      "address": {
        "street": "136 Bowery Street",
        "city": "Chapin",
        "province": "West Virginia",
        "postalCode": 12148
      }
    },
    {
      "id": "5adc22f27449119c9990b269",
      "safeNumber": "TD794995",
      "name": "PRINTSPAN",
      "address": {
        "street": "748 Ingraham Street",
        "city": "Vowinckel",
        "province": "Massachusetts",
        "postalCode": 89786
      }
    },
    {
      "id": "5adc22f21d88d1bc833a8e93",
      "safeNumber": "YT969534",
      "name": "ZOUNDS",
      "address": {
        "street": "504 Gelston Avenue",
        "city": "Indio",
        "province": "North Dakota",
        "postalCode": 55072
      }
    },
    {
      "id": "5adc22f2ffd8f76d6c3b0ca2",
      "safeNumber": "IE947659",
      "name": "ROUGHIES",
      "address": {
        "street": "413 Halleck Street",
        "city": "Walker",
        "province": "Alaska",
        "postalCode": 73399
      }
    },
    {
      "id": "5adc22f2b9a3a7813f651edf",
      "safeNumber": "KM950112",
      "name": "KOFFEE",
      "address": {
        "street": "372 Carlton Avenue",
        "city": "Wedgewood",
        "province": "American Samoa",
        "postalCode": 42666
      }
    },
    {
      "id": "5adc22f26775741f329591dd",
      "safeNumber": "GM610137",
      "name": "EZENT",
      "address": {
        "street": "634 Hale Avenue",
        "city": "Gallina",
        "province": "Montana",
        "postalCode": 79821
      }
    },
    {
      "id": "5adc22f2616e263022141f5b",
      "safeNumber": "DO208060",
      "name": "DUOFLEX",
      "address": {
        "street": "777 Norfolk Street",
        "city": "Jacksonwald",
        "province": "Arkansas",
        "postalCode": 53152
      }
    },
    {
      "id": "5adc22f207c5d0f1c949f191",
      "safeNumber": "IO173902",
      "name": "EMTRAC",
      "address": {
        "street": "703 Covert Street",
        "city": "Sanborn",
        "province": "South Dakota",
        "postalCode": 34699
      }
    },
    {
      "id": "5adc22f2ea807d15fb60153d",
      "safeNumber": "UK109685",
      "name": "TSUNAMIA",
      "address": {
        "street": "117 Richardson Street",
        "city": "Beechmont",
        "province": "Wyoming",
        "postalCode": 15567
      }
    },
    {
      "id": "5adc22f297afa81196af2a43",
      "safeNumber": "UM120304",
      "name": "ISOLOGICS",
      "address": {
        "street": "825 Hinsdale Street",
        "city": "Irwin",
        "province": "Delaware",
        "postalCode": 63523
      }
    },
    {
      "id": "5adc22f28b3a55a4ac0c6699",
      "safeNumber": "SH171027",
      "name": "INSURITY",
      "address": {
        "street": "758 Harbor Court",
        "city": "Northchase",
        "province": "Florida",
        "postalCode": 87576
      }
    },
    {
      "id": "5adc22f2af4df988cb3b0e1f",
      "safeNumber": "KN116894",
      "name": "TROLLERY",
      "address": {
        "street": "721 Douglass Street",
        "city": "Nash",
        "province": "Northern Mariana Islands",
        "postalCode": 50600
      }
    },
    {
      "id": "5adc22f21340f002b4430c93",
      "safeNumber": "NA247790",
      "name": "ANDRYX",
      "address": {
        "street": "741 Seagate Avenue",
        "city": "Jugtown",
        "province": "Maine",
        "postalCode": 21103
      }
    },
    {
      "id": "5adc22f2cb5b4ac70812406b",
      "safeNumber": "LB390580",
      "name": "EXOPLODE",
      "address": {
        "street": "289 Melba Court",
        "city": "Rockhill",
        "province": "Missouri",
        "postalCode": 97959
      }
    },
    {
      "id": "5adc22f2468dfca68079b6d0",
      "safeNumber": "PE470514",
      "name": "VURBO",
      "address": {
        "street": "110 Wyckoff Avenue",
        "city": "Hiwasse",
        "province": "Virginia",
        "postalCode": 81869
      }
    },
    {
      "id": "5adc22f2b5e4e8c40f1d7d0c",
      "safeNumber": "VU252302",
      "name": "EXOSWITCH",
      "address": {
        "street": "928 Denton Place",
        "city": "Lafferty",
        "province": "Michigan",
        "postalCode": 69648
      }
    },
    {
      "id": "5adc22f2c27da96d11f3b883",
      "safeNumber": "CI403115",
      "name": "VANTAGE",
      "address": {
        "street": "138 Vermont Court",
        "city": "Loretto",
        "province": "Ohio",
        "postalCode": 59312
      }
    },
    {
      "id": "5adc22f285947cad08d6a069",
      "safeNumber": "CA411720",
      "name": "AQUOAVO",
      "address": {
        "street": "334 Regent Place",
        "city": "Hampstead",
        "province": "Texas",
        "postalCode": 63588
      }
    },
    {
      "id": "5adc22f24c65447f215b3758",
      "safeNumber": "AF143738",
      "name": "MANTRO",
      "address": {
        "street": "981 Thatford Avenue",
        "city": "Templeton",
        "province": "New Mexico",
        "postalCode": 91170
      }
    },
    {
      "id": "5adc22f23134abd6347ec9d4",
      "safeNumber": "YU680808",
      "name": "ULTRASURE",
      "address": {
        "street": "246 Wilson Avenue",
        "city": "Freeburn",
        "province": "Minnesota",
        "postalCode": 31644
      }
    },
    {
      "id": "5adc22f2b0d1a68de4791938",
      "safeNumber": "PR861178",
      "name": "SLOFAST",
      "address": {
        "street": "948 Atlantic Avenue",
        "city": "Trexlertown",
        "province": "Mississippi",
        "postalCode": 89439
      }
    },
    {
      "id": "5adc22f28eb89610e71e6910",
      "safeNumber": "PY348416",
      "name": "ZIORE",
      "address": {
        "street": "721 Agate Court",
        "city": "Muse",
        "province": "New York",
        "postalCode": 39594
      }
    },
    {
      "id": "5adc22f2c7a59ef716ad85a6",
      "safeNumber": "MN293609",
      "name": "ROCKABYE",
      "address": {
        "street": "495 Robert Street",
        "city": "Gardiner",
        "province": "Virgin Islands",
        "postalCode": 13915
      }
    },
    {
      "id": "5adc22f2e3fa5e91faffa99a",
      "safeNumber": "RW351141",
      "name": "SKYBOLD",
      "address": {
        "street": "436 Celeste Court",
        "city": "Bawcomville",
        "province": "Rhode Island",
        "postalCode": 34279
      }
    },
    {
      "id": "5adc22f2caea2b0be7eae2fa",
      "safeNumber": "AD871684",
      "name": "OZEAN",
      "address": {
        "street": "736 Fanchon Place",
        "city": "Collins",
        "province": "Arizona",
        "postalCode": 52643
      }
    },
    {
      "id": "5adc22f285d919ba7b51f72d",
      "safeNumber": "BE780486",
      "name": "GOLOGY",
      "address": {
        "street": "272 Wilson Street",
        "city": "Rosine",
        "province": "Vermont",
        "postalCode": 82257
      }
    },
    {
      "id": "5adc22f2dc050b69fd0f7ee3",
      "safeNumber": "BA497899",
      "name": "ORBALIX",
      "address": {
        "street": "481 Hancock Street",
        "city": "Castleton",
        "province": "Nebraska",
        "postalCode": 97006
      }
    },
    {
      "id": "5adc22f232bf0f86dcb14d72",
      "safeNumber": "JM383488",
      "name": "XINWARE",
      "address": {
        "street": "791 Durland Place",
        "city": "Veguita",
        "province": "Iowa",
        "postalCode": 55939
      }
    },
    {
      "id": "5adc22f29911f9f9831eeb45",
      "safeNumber": "IQ579869",
      "name": "ZAGGLES",
      "address": {
        "street": "905 Stuyvesant Avenue",
        "city": "Lynn",
        "province": "New Hampshire",
        "postalCode": 61868
      }
    },
    {
      "id": "5adc22f20db7e7b63f89c55f",
      "safeNumber": "TP704877",
      "name": "PYRAMIS",
      "address": {
        "street": "963 Middagh Street",
        "city": "Montura",
        "province": "Guam",
        "postalCode": 82166
      }
    },
    {
      "id": "5adc22f24181f051486630de",
      "safeNumber": "BF300404",
      "name": "AUSTECH",
      "address": {
        "street": "123 Fairview Place",
        "city": "Dotsero",
        "province": "Hawaii",
        "postalCode": 36009
      }
    },
    {
      "id": "5adc22f23cd2a551953447d3",
      "safeNumber": "GE269329",
      "name": "GEEKOLA",
      "address": {
        "street": "892 Baycliff Terrace",
        "city": "Craig",
        "province": "Palau",
        "postalCode": 53309
      }
    },
    {
      "id": "5adc22f24b738c91a63de1a3",
      "safeNumber": "VC197625",
      "name": "VIDTO",
      "address": {
        "street": "254 Mermaid Avenue",
        "city": "Kiskimere",
        "province": "Georgia",
        "postalCode": 27093
      }
    },
    {
      "id": "5adc22f2908c19af98a53208",
      "safeNumber": "MZ645923",
      "name": "VERTON",
      "address": {
        "street": "753 Bouck Court",
        "city": "Motley",
        "province": "North Carolina",
        "postalCode": 41257
      }
    },
    {
      "id": "5adc22f22a3d40085121bde4",
      "safeNumber": "LT259187",
      "name": "VIXO",
      "address": {
        "street": "688 Billings Place",
        "city": "Avoca",
        "province": "Marshall Islands",
        "postalCode": 20702
      }
    },
    {
      "id": "5adc22f27d84013b80e742ea",
      "safeNumber": "RO281346",
      "name": "TUBALUM",
      "address": {
        "street": "206 Kingsland Avenue",
        "city": "Jackpot",
        "province": "Oregon",
        "postalCode": 32688
      }
    },
    {
      "id": "5adc22f24553c9e3522f3bd0",
      "safeNumber": "LV264244",
      "name": "ORONOKO",
      "address": {
        "street": "301 Brooklyn Road",
        "city": "Lorraine",
        "province": "Alabama",
        "postalCode": 65603
      }
    },
    {
      "id": "5adc22f2b3a00932128c542b",
      "safeNumber": "PF121458",
      "name": "FLYBOYZ",
      "address": {
        "street": "750 Drew Street",
        "city": "Dargan",
        "province": "Idaho",
        "postalCode": 64596
      }
    },
    {
      "id": "5adc22f254b2b64c44a9c836",
      "safeNumber": "LI654837",
      "name": "ORBIXTAR",
      "address": {
        "street": "672 Folsom Place",
        "city": "Boling",
        "province": "Connecticut",
        "postalCode": 97821
      }
    },
    {
      "id": "5adc22f21d5bff6e475c21ba",
      "safeNumber": "LC337662",
      "name": "FLOTONIC",
      "address": {
        "street": "262 Throop Avenue",
        "city": "Hatteras",
        "province": "Utah",
        "postalCode": 72989
      }
    },
    {
      "id": "5adc22f2c6adb8f9ba4e6313",
      "safeNumber": "GR717476",
      "name": "OVATION",
      "address": {
        "street": "584 Nassau Avenue",
        "city": "Mathews",
        "province": "Puerto Rico",
        "postalCode": 34658
      }
    },
    {
      "id": "5adc22f2f322c043e3c17fb7",
      "safeNumber": "AW857531",
      "name": "CEDWARD",
      "address": {
        "street": "506 Himrod Street",
        "city": "Elrama",
        "province": "South Carolina",
        "postalCode": 75417
      }
    },
    {
      "id": "5adc22f256b94d494db165c6",
      "safeNumber": "SV841828",
      "name": "NIXELT",
      "address": {
        "street": "507 Erasmus Street",
        "city": "Kersey",
        "province": "California",
        "postalCode": 75275
      }
    },
    {
      "id": "5adc22f2381240010768794c",
      "safeNumber": "FO236218",
      "name": "MAGMINA",
      "address": {
        "street": "932 Randolph Street",
        "city": "Levant",
        "province": "Tennessee",
        "postalCode": 21992
      }
    },
    {
      "id": "5adc22f276aa2c69df84e6e5",
      "safeNumber": "LS688927",
      "name": "ZILLANET",
      "address": {
        "street": "365 Whitney Avenue",
        "city": "Gracey",
        "province": "Oklahoma",
        "postalCode": 11804
      }
    },
    {
      "id": "5adc22f2ce51311c8035c7f9",
      "safeNumber": "BW768258",
      "name": "DIGIAL",
      "address": {
        "street": "466 Jefferson Street",
        "city": "Talpa",
        "province": "Kansas",
        "postalCode": 84128
      }
    },
    {
      "id": "5adc22f20053e465d01c9259",
      "safeNumber": "TT413571",
      "name": "ACIUM",
      "address": {
        "street": "576 Beaver Street",
        "city": "Chamizal",
        "province": "Wisconsin",
        "postalCode": 38597
      }
    },
    {
      "id": "5adc22f2be104f246fe3df64",
      "safeNumber": "MO696569",
      "name": "BIOHAB",
      "address": {
        "street": "579 Madison Place",
        "city": "Brookfield",
        "province": "New Jersey",
        "postalCode": 72951
      }
    },
    {
      "id": "5adc22f2905a259c81415a85",
      "safeNumber": "NL829442",
      "name": "AEORA",
      "address": {
        "street": "489 Conselyea Street",
        "city": "Berlin",
        "province": "Louisiana",
        "postalCode": 50860
      }
    },
    {
      "id": "5adc22f22629abbef4835f05",
      "safeNumber": "DZ473285",
      "name": "BOSTONIC",
      "address": {
        "street": "596 Kingsway Place",
        "city": "Brambleton",
        "province": "Pennsylvania",
        "postalCode": 41347
      }
    },
    {
      "id": "5adc22f2bf42b260b373fe1e",
      "safeNumber": "TH834666",
      "name": "EZENTIA",
      "address": {
        "street": "511 Crystal Street",
        "city": "Kingstowne",
        "province": "Maryland",
        "postalCode": 52866
      }
    },
    {
      "id": "5adc22f2982d30ab30eb80b8",
      "safeNumber": "CZ554703",
      "name": "VIOCULAR",
      "address": {
        "street": "917 Batchelder Street",
        "city": "Century",
        "province": "Washington",
        "postalCode": 66010
      }
    },
    {
      "id": "5adc22f24b69720ba9ea7b51",
      "safeNumber": "MH123821",
      "name": "EARBANG",
      "address": {
        "street": "122 Eckford Street",
        "city": "Maxville",
        "province": "Illinois",
        "postalCode": 10532
      }
    },
    {
      "id": "5adc22f20fc675a0abb83d19",
      "safeNumber": "GD205222",
      "name": "WAAB",
      "address": {
        "street": "993 Putnam Avenue",
        "city": "Sexton",
        "province": "District Of Columbia",
        "postalCode": 74104
      }
    },
    {
      "id": "5adc22f23f53483dcba2745b",
      "safeNumber": "GI374731",
      "name": "HELIXO",
      "address": {
        "street": "229 Vandervoort Avenue",
        "city": "Topaz",
        "province": "Federated States Of Micronesia",
        "postalCode": 42420
      }
    },
    {
      "id": "5adc22f2bb21bbf6fc350e70",
      "safeNumber": "SZ949055",
      "name": "MOMENTIA",
      "address": {
        "street": "332 Suydam Street",
        "city": "Libertytown",
        "province": "Nevada",
        "postalCode": 10385
      }
    },
    {
      "id": "5adc22f241d81860101a219b",
      "safeNumber": "CK506308",
      "name": "QUANTALIA",
      "address": {
        "street": "579 Veterans Avenue",
        "city": "Rew",
        "province": "Colorado",
        "postalCode": 74552
      }
    },
    {
      "id": "5adc22f292fd38a328cb02b0",
      "safeNumber": "MR709924",
      "name": "ZILLA",
      "address": {
        "street": "350 Sumner Place",
        "city": "Frierson",
        "province": "Kentucky",
        "postalCode": 72965
      }
    },
    {
      "id": "5adc22f25acc3b64945385c0",
      "safeNumber": "TK975179",
      "name": "AQUAFIRE",
      "address": {
        "street": "133 Berry Street",
        "city": "Bethany",
        "province": "West Virginia",
        "postalCode": 31549
      }
    },
    {
      "id": "5adc22f2e961e9cb052c1835",
      "safeNumber": "PW904045",
      "name": "VITRICOMP",
      "address": {
        "street": "732 Wakeman Place",
        "city": "Brandermill",
        "province": "Massachusetts",
        "postalCode": 29570
      }
    },
    {
      "id": "5adc22f204aac52ac204599c",
      "safeNumber": "AZ981547",
      "name": "GINKOGENE",
      "address": {
        "street": "872 Kosciusko Street",
        "city": "Floris",
        "province": "North Dakota",
        "postalCode": 27251
      }
    },
    {
      "id": "5adc22f2c952691102e4d82f",
      "safeNumber": "SB821780",
      "name": "IDEGO",
      "address": {
        "street": "154 Sedgwick Place",
        "city": "Elbert",
        "province": "Alaska",
        "postalCode": 11052
      }
    },
    {
      "id": "5adc22f244b9a89b11cb3ae3",
      "safeNumber": "NR363205",
      "name": "ACCIDENCY",
      "address": {
        "street": "147 Hooper Street",
        "city": "Charco",
        "province": "American Samoa",
        "postalCode": 90902
      }
    },
    {
      "id": "5adc22f2c9ae4d6c76986a40",
      "safeNumber": "VE502153",
      "name": "CONFERIA",
      "address": {
        "street": "155 Krier Place",
        "city": "Clinton",
        "province": "Montana",
        "postalCode": 99725
      }
    },
    {
      "id": "5adc22f2a28f775326d05a96",
      "safeNumber": "SY303447",
      "name": "SLUMBERIA",
      "address": {
        "street": "802 Boulevard Court",
        "city": "Kansas",
        "province": "Arkansas",
        "postalCode": 36136
      }
    },
    {
      "id": "5adc22f2d891834620cbe3ea",
      "safeNumber": "MX790164",
      "name": "VORATAK",
      "address": {
        "street": "873 Meadow Street",
        "city": "Kieler",
        "province": "South Dakota",
        "postalCode": 47668
      }
    },
    {
      "id": "5adc22f22256b9f95db7aebe",
      "safeNumber": "CV482512",
      "name": "CONFRENZY",
      "address": {
        "street": "368 Lester Court",
        "city": "Jeff",
        "province": "Wyoming",
        "postalCode": 15195
      }
    },
    {
      "id": "5adc22f257d6d0169749e399",
      "safeNumber": "SC671077",
      "name": "PREMIANT",
      "address": {
        "street": "878 Boerum Street",
        "city": "Columbus",
        "province": "Delaware",
        "postalCode": 41558
      }
    },
    {
      "id": "5adc22f2ad5ade1edc6831d0",
      "safeNumber": "CC782383",
      "name": "GEEKOLOGY",
      "address": {
        "street": "527 Story Court",
        "city": "Albrightsville",
        "province": "Florida",
        "postalCode": 83293
      }
    },
    {
      "id": "5adc22f271a3fc28c1eb9233",
      "safeNumber": "GQ263150",
      "name": "VICON",
      "address": {
        "street": "811 Furman Street",
        "city": "Macdona",
        "province": "Northern Mariana Islands",
        "postalCode": 55882
      }
    },
    {
      "id": "5adc22f21dc476058d5b5ecb",
      "safeNumber": "BD628097",
      "name": "COLAIRE",
      "address": {
        "street": "189 Tapscott Street",
        "city": "Trinway",
        "province": "Maine",
        "postalCode": 50105
      }
    },
    {
      "id": "5adc22f264da185d077097de",
      "safeNumber": "AG705297",
      "name": "COMSTAR",
      "address": {
        "street": "865 Raleigh Place",
        "city": "Keyport",
        "province": "Missouri",
        "postalCode": 45521
      }
    },
    {
      "id": "5adc22f2e77861e82b5c967d",
      "safeNumber": "BJ330961",
      "name": "LETPRO",
      "address": {
        "street": "934 Ruby Street",
        "city": "Croom",
        "province": "Virginia",
        "postalCode": 56148
      }
    },
    {
      "id": "5adc22f2f9be98a3a2802e4d",
      "safeNumber": "LY535951",
      "name": "EXPOSA",
      "address": {
        "street": "902 Holmes Lane",
        "city": "Driftwood",
        "province": "Michigan",
        "postalCode": 21102
      }
    },
    {
      "id": "5adc22f2970c816db1c36183",
      "safeNumber": "CH645786",
      "name": "ZOXY",
      "address": {
        "street": "331 Victor Road",
        "city": "Kidder",
        "province": "Ohio",
        "postalCode": 19825
      }
    },
    {
      "id": "5adc22f2aabb3774e633b666",
      "safeNumber": "TN296726",
      "name": "KINETICUT",
      "address": {
        "street": "432 Cleveland Street",
        "city": "Muir",
        "province": "Texas",
        "postalCode": 82939
      }
    },
    {
      "id": "5adc22f2d23869916fde955f",
      "safeNumber": "MC423829",
      "name": "TINGLES",
      "address": {
        "street": "214 Gunther Place",
        "city": "Hickory",
        "province": "New Mexico",
        "postalCode": 37335
      }
    },
    {
      "id": "5adc22f29c4445fa0aa106d8",
      "safeNumber": "GA955236",
      "name": "SYNTAC",
      "address": {
        "street": "135 Driggs Avenue",
        "city": "Bluffview",
        "province": "Minnesota",
        "postalCode": 81712
      }
    },
    {
      "id": "5adc22f218eece13d66e7ee2",
      "safeNumber": "NI115657",
      "name": "OBLIQ",
      "address": {
        "street": "177 Colonial Road",
        "city": "Tilden",
        "province": "Mississippi",
        "postalCode": 44398
      }
    },
    {
      "id": "5adc22f2b731934cc2193d08",
      "safeNumber": "JP362840",
      "name": "DENTREX",
      "address": {
        "street": "658 Dooley Street",
        "city": "Forestburg",
        "province": "New York",
        "postalCode": 27358
      }
    },
    {
      "id": "5adc22f2164d58287249cf9a",
      "safeNumber": "HR302543",
      "name": "COWTOWN",
      "address": {
        "street": "806 Berkeley Place",
        "city": "Interlochen",
        "province": "Virgin Islands",
        "postalCode": 61813
      }
    },
    {
      "id": "5adc22f25b5b889db5fcccca",
      "safeNumber": "GU915764",
      "name": "PARLEYNET",
      "address": {
        "street": "863 Clarkson Avenue",
        "city": "Hanover",
        "province": "Rhode Island",
        "postalCode": 82686
      }
    },
    {
      "id": "5adc22f2349ccacb2b79aec2",
      "safeNumber": "AN458245",
      "name": "BISBA",
      "address": {
        "street": "482 Belmont Avenue",
        "city": "Hiseville",
        "province": "Arizona",
        "postalCode": 34568
      }
    },
    {
      "id": "5adc22f2dc581bdbce3306f3",
      "safeNumber": "TR182473",
      "name": "COSMETEX",
      "address": {
        "street": "507 Hausman Street",
        "city": "Madaket",
        "province": "Vermont",
        "postalCode": 80374
      }
    },
    {
      "id": "5adc22f2a4d135cc262509b4",
      "safeNumber": "GY467683",
      "name": "REPETWIRE",
      "address": {
        "street": "207 Jefferson Avenue",
        "city": "Gordon",
        "province": "Nebraska",
        "postalCode": 29721
      }
    },
    {
      "id": "5adc22f247bd8f80885356cf",
      "safeNumber": "AS923040",
      "name": "ZENTURY",
      "address": {
        "street": "960 Irving Street",
        "city": "Tedrow",
        "province": "Iowa",
        "postalCode": 96294
      }
    },
    {
      "id": "5adc22f21cd4e014c7690015",
      "safeNumber": "CM353869",
      "name": "EXOVENT",
      "address": {
        "street": "113 Herbert Street",
        "city": "Boyd",
        "province": "New Hampshire",
        "postalCode": 79137
      }
    },
    {
      "id": "5adc22f2b057f00a7e46a58f",
      "safeNumber": "LA452034",
      "name": "DIGIFAD",
      "address": {
        "street": "640 Burnett Street",
        "city": "Wilsonia",
        "province": "Guam",
        "postalCode": 14049
      }
    },
    {
      "id": "5adc22f2b1c294fbd2b0b45a",
      "safeNumber": "FJ746894",
      "name": "TALKOLA",
      "address": {
        "street": "277 Downing Street",
        "city": "Bowden",
        "province": "Hawaii",
        "postalCode": 89890
      }
    },
    {
      "id": "5adc22f289ef9d1231336162",
      "safeNumber": "AL255138",
      "name": "VALREDA",
      "address": {
        "street": "559 Rutherford Place",
        "city": "Marbury",
        "province": "Palau",
        "postalCode": 58090
      }
    },
    {
      "id": "5adc22f2eca885fe0395bb7b",
      "safeNumber": "GP445042",
      "name": "MAXEMIA",
      "address": {
        "street": "378 Nolans Lane",
        "city": "Villarreal",
        "province": "Georgia",
        "postalCode": 46001
      }
    },
    {
      "id": "5adc22f2713233711b3c4dac",
      "safeNumber": "IS608968",
      "name": "SOPRANO",
      "address": {
        "street": "624 Bainbridge Street",
        "city": "Vaughn",
        "province": "North Carolina",
        "postalCode": 82236
      }
    },
    {
      "id": "5adc22f223ce9913690e4d99",
      "safeNumber": "PH697635",
      "name": "ZOGAK",
      "address": {
        "street": "227 Hazel Court",
        "city": "Brazos",
        "province": "Marshall Islands",
        "postalCode": 56955
      }
    },
    {
      "id": "5adc22f263919f8edbce5de6",
      "safeNumber": "GF656509",
      "name": "LUNCHPAD",
      "address": {
        "street": "558 Russell Street",
        "city": "Clarence",
        "province": "Oregon",
        "postalCode": 92475
      }
    },
    {
      "id": "5adc22f29dbed3ab3f79d850",
      "safeNumber": "NO695055",
      "name": "XANIDE",
      "address": {
        "street": "275 Frost Street",
        "city": "Gibbsville",
        "province": "Alabama",
        "postalCode": 71577
      }
    },
    {
      "id": "5adc22f2f347b7a1234cb056",
      "safeNumber": "MT771867",
      "name": "COMDOM",
      "address": {
        "street": "608 Borinquen Pl",
        "city": "Moquino",
        "province": "Idaho",
        "postalCode": 79748
      }
    },
    {
      "id": "5adc22f2f641bd36caba1024",
      "safeNumber": "ML929916",
      "name": "SONIQUE",
      "address": {
        "street": "244 Clinton Avenue",
        "city": "Glasgow",
        "province": "Connecticut",
        "postalCode": 26578
      }
    },
    {
      "id": "5adc22f2bea768e678c92222",
      "safeNumber": "BO786643",
      "name": "GRAINSPOT",
      "address": {
        "street": "314 Pooles Lane",
        "city": "Shelby",
        "province": "Utah",
        "postalCode": 81530
      }
    },
    {
      "id": "5adc22f25663f5cf55964ff3",
      "safeNumber": "ZA209626",
      "name": "COGENTRY",
      "address": {
        "street": "223 Glenmore Avenue",
        "city": "Belmont",
        "province": "Puerto Rico",
        "postalCode": 53655
      }
    }
  ]
}